COSMOS 1892             
1 18421U 87088A   25300.88293460  .00198658  12846-4  67429-3 0  9990
2 18421  82.4699  95.2704 0004677 329.9189  30.1814 15.89775956 83985
SL-14 R/B               
1 18749U 88001B   25300.49938758  .00000638  00000+0  71303-4 0  9993
2 18749  82.5118 320.6497 0017085 322.9785  37.0251 14.85350109 22259
COSMOS 1933             
1 18958U 88020A   25300.64095595  .00006083  00000+0  31024-3 0  9991
2 18958  82.5166  22.4019 0003113 312.8176  47.2795 15.16569683 30057
SL-3 R/B                
1 19046U 88032B   25300.92849255  .00007568  00000+0  37192-3 0  9995
2 19046  97.5042 280.0002 0026400 340.9340  19.0903 15.18024686 31957
SL-16 R/B               
1 19120U 88039B   25300.52256593  .00000123  00000+0  80968-4 0  9998
2 19120  71.0164 350.1236 0022116 190.5424 169.5240 14.19585461939485
COSMOS 1953             
1 19210U 88050A   25300.95124161  .00007063  00000+0  27146-3 0  9991
2 19210  82.5067 291.5073 0010419 223.5876 136.4540 15.26204156 17528
SL-8 R/B                
1 19257U 88053B   25300.95114205  .00000369  00000+0  12831-3 0  9990
2 19257  74.0492 357.1117 0020702 213.8833 319.4676 14.38818032957506
COSMOS 1975             
1 19573U 88093A   25300.94380514  .00013175  00000+0  52031-3 0  9997
2 19573  82.5202 250.6331 0009374 282.9648  77.0543 15.25360915999143
SL-14 R/B               
1 19574U 88093B   25300.70718275  .00000605  00000+0  67033-4 0  9994
2 19574  82.5320 166.8635 0022098 116.1545 332.9753 14.85481326981290
SL-16 R/B               
1 19650U 88102B   25300.82760627  .00000334  00000+0  19305-3 0  9998
2 19650  70.9994  71.0424 0015575 220.0740 139.9236 14.16127927908085
INTERCOSMOS 24          
1 20261U 89080A   25300.66148540  .00000731  00000+0  21704-3 0  9997
2 20261  82.6103 190.9142 1187545 241.4468 106.2140 12.59343441650055
SL-14 R/B               
1 20262U 89080C   25300.89674632  .00000295  00000+0  79634-4 0  9990
2 20262  82.5904 258.4416 1231474 128.2908 243.5576 12.50368139643557
