CCSDS_OMM_VERS = 2.0
CREATION_DATE  = 
ORIGINATOR     = 

OBJECT_NAME    = COSMOS 1892
OBJECT_ID      = 1987-088A
CENTER_NAME    = EARTH
REF_FRAME      = TEME
TIME_SYSTEM    = UTC
MEAN_ELEMENT_THEORY = SGP/SGP4

EPOCH          = 2025-10-27T21:11:25.549440
MEAN_MOTION    = 15.89775956
ECCENTRICITY   = .00046778
INCLINATION    = 82.4699
RA_OF_ASC_NODE = 95.2704
ARG_OF_PERICENTER = 329.9189
MEAN_ANOMALY   = 30.1814

EPHEMERIS_TYPE = 0
CLASSIFICATION_TYPE = U
NORAD_CAT_ID   = 18421
ELEMENT_SET_NO = 999
REV_AT_EPOCH   = 8398
BSTAR          = .67428765E-3
MEAN_MOTION_DOT = .198658E-2
MEAN_MOTION_DDOT = .12845775E-4

CCSDS_OMM_VERS = 2.0
CREATION_DATE  = 
ORIGINATOR     = 

OBJECT_NAME    = SL-14 R/B
OBJECT_ID      = 1988-001B
CENTER_NAME    = EARTH
REF_FRAME      = TEME
TIME_SYSTEM    = UTC
MEAN_ELEMENT_THEORY = SGP/SGP4

EPOCH          = 2025-10-27T11:59:07.086912
MEAN_MOTION    = 14.85350109
ECCENTRICITY   = .00170856
INCLINATION    = 82.5118
RA_OF_ASC_NODE = 320.6497
ARG_OF_PERICENTER = 322.9785
MEAN_ANOMALY   = 37.0251

EPHEMERIS_TYPE = 0
CLASSIFICATION_TYPE = U
NORAD_CAT_ID   = 18749
ELEMENT_SET_NO = 999
REV_AT_EPOCH   = 2225
BSTAR          = .71303035E-4
MEAN_MOTION_DOT = .638E-5
MEAN_MOTION_DDOT = 0

CCSDS_OMM_VERS = 2.0
CREATION_DATE  = 
ORIGINATOR     = 

OBJECT_NAME    = COSMOS 1933
OBJECT_ID      = 1988-020A
CENTER_NAME    = EARTH
REF_FRAME      = TEME
TIME_SYSTEM    = UTC
MEAN_ELEMENT_THEORY = SGP/SGP4

EPOCH          = 2025-10-27T15:22:58.594080
MEAN_MOTION    = 15.16569683
ECCENTRICITY   = .0003113
INCLINATION    = 82.5166
RA_OF_ASC_NODE = 22.4019
ARG_OF_PERICENTER = 312.8176
MEAN_ANOMALY   = 47.2795

EPHEMERIS_TYPE = 0
CLASSIFICATION_TYPE = U
NORAD_CAT_ID   = 18958
ELEMENT_SET_NO = 999
REV_AT_EPOCH   = 3005
BSTAR          = .31023779E-3
MEAN_MOTION_DOT = .6083E-4
MEAN_MOTION_DDOT = 0

CCSDS_OMM_VERS = 2.0
CREATION_DATE  = 
ORIGINATOR     = 

OBJECT_NAME    = SL-3 R/B
OBJECT_ID      = 1988-032B
CENTER_NAME    = EARTH
REF_FRAME      = TEME
TIME_SYSTEM    = UTC
MEAN_ELEMENT_THEORY = SGP/SGP4

EPOCH          = 2025-10-27T22:17:01.756320
MEAN_MOTION    = 15.18024686
ECCENTRICITY   = .00264005
INCLINATION    = 97.5042
RA_OF_ASC_NODE = 280.0002
ARG_OF_PERICENTER = 340.9340
MEAN_ANOMALY   = 19.0903

EPHEMERIS_TYPE = 0
CLASSIFICATION_TYPE = U
NORAD_CAT_ID   = 19046
ELEMENT_SET_NO = 999
REV_AT_EPOCH   = 3195
BSTAR          = .37191524E-3
MEAN_MOTION_DOT = .7568E-4
MEAN_MOTION_DDOT = 0

CCSDS_OMM_VERS = 2.0
CREATION_DATE  = 
ORIGINATOR     = 

OBJECT_NAME    = SL-16 R/B
OBJECT_ID      = 1988-039B
CENTER_NAME    = EARTH
REF_FRAME      = TEME
TIME_SYSTEM    = UTC
MEAN_ELEMENT_THEORY = SGP/SGP4

EPOCH          = 2025-10-27T12:32:29.696352
MEAN_MOTION    = 14.19585461
ECCENTRICITY   = .00221168
INCLINATION    = 71.0164
RA_OF_ASC_NODE = 350.1236
ARG_OF_PERICENTER = 190.5424
MEAN_ANOMALY   = 169.5240

EPHEMERIS_TYPE = 0
CLASSIFICATION_TYPE = U
NORAD_CAT_ID   = 19120
ELEMENT_SET_NO = 999
REV_AT_EPOCH   = 93948
BSTAR          = .80967757E-4
MEAN_MOTION_DOT = .123E-5
MEAN_MOTION_DDOT = 0

CCSDS_OMM_VERS = 2.0
CREATION_DATE  = 
ORIGINATOR     = 

OBJECT_NAME    = COSMOS 1953
OBJECT_ID      = 1988-050A
CENTER_NAME    = EARTH
REF_FRAME      = TEME
TIME_SYSTEM    = UTC
MEAN_ELEMENT_THEORY = SGP/SGP4

EPOCH          = 2025-10-27T22:49:47.275104
MEAN_MOTION    = 15.26204156
ECCENTRICITY   = .00104195
INCLINATION    = 82.5067
RA_OF_ASC_NODE = 291.5073
ARG_OF_PERICENTER = 223.5876
MEAN_ANOMALY   = 136.4540

EPHEMERIS_TYPE = 0
CLASSIFICATION_TYPE = U
NORAD_CAT_ID   = 19210
ELEMENT_SET_NO = 999
REV_AT_EPOCH   = 1752
BSTAR          = .27145971E-3
MEAN_MOTION_DOT = .7063E-4
MEAN_MOTION_DDOT = 0

CCSDS_OMM_VERS = 2.0
CREATION_DATE  = 
ORIGINATOR     = 

OBJECT_NAME    = SL-8 R/B
OBJECT_ID      = 1988-053B
CENTER_NAME    = EARTH
REF_FRAME      = TEME
TIME_SYSTEM    = UTC
MEAN_ELEMENT_THEORY = SGP/SGP4

EPOCH          = 2025-10-27T22:49:38.673120
MEAN_MOTION    = 14.38818032
ECCENTRICITY   = .00207021
INCLINATION    = 74.0492
RA_OF_ASC_NODE = 357.1117
ARG_OF_PERICENTER = 213.8833
MEAN_ANOMALY   = 319.4676

EPHEMERIS_TYPE = 0
CLASSIFICATION_TYPE = U
NORAD_CAT_ID   = 19257
ELEMENT_SET_NO = 999
REV_AT_EPOCH   = 95750
BSTAR          = .12830813E-3
MEAN_MOTION_DOT = .369E-5
MEAN_MOTION_DDOT = 0

CCSDS_OMM_VERS = 2.0
CREATION_DATE  = 
ORIGINATOR     = 

OBJECT_NAME    = COSMOS 1975
OBJECT_ID      = 1988-093A
CENTER_NAME    = EARTH
REF_FRAME      = TEME
TIME_SYSTEM    = UTC
MEAN_ELEMENT_THEORY = SGP/SGP4

EPOCH          = 2025-10-27T22:39:04.764096
MEAN_MOTION    = 15.25360915
ECCENTRICITY   = .00093744
INCLINATION    = 82.5202
RA_OF_ASC_NODE = 250.6331
ARG_OF_PERICENTER = 282.9648
MEAN_ANOMALY   = 77.0543

EPHEMERIS_TYPE = 0
CLASSIFICATION_TYPE = U
NORAD_CAT_ID   = 19573
ELEMENT_SET_NO = 999
REV_AT_EPOCH   = 99914
BSTAR          = .52030719E-3
MEAN_MOTION_DOT = .13175E-3
MEAN_MOTION_DDOT = 0

CCSDS_OMM_VERS = 2.0
CREATION_DATE  = 
ORIGINATOR     = 

OBJECT_NAME    = SL-14 R/B
OBJECT_ID      = 1988-093B
CENTER_NAME    = EARTH
REF_FRAME      = TEME
TIME_SYSTEM    = UTC
MEAN_ELEMENT_THEORY = SGP/SGP4

EPOCH          = 2025-10-27T16:58:20.589600
MEAN_MOTION    = 14.85481326
ECCENTRICITY   = .00220983
INCLINATION    = 82.5320
RA_OF_ASC_NODE = 166.8635
ARG_OF_PERICENTER = 116.1545
MEAN_ANOMALY   = 332.9753

EPHEMERIS_TYPE = 0
CLASSIFICATION_TYPE = U
NORAD_CAT_ID   = 19574
ELEMENT_SET_NO = 999
REV_AT_EPOCH   = 98129
BSTAR          = .67032818E-4
MEAN_MOTION_DOT = .605E-5
MEAN_MOTION_DDOT = 0

CCSDS_OMM_VERS = 2.0
CREATION_DATE  = 
ORIGINATOR     = 

OBJECT_NAME    = SL-16 R/B
OBJECT_ID      = 1988-102B
CENTER_NAME    = EARTH
REF_FRAME      = TEME
TIME_SYSTEM    = UTC
MEAN_ELEMENT_THEORY = SGP/SGP4

EPOCH          = 2025-10-27T19:51:45.181728
MEAN_MOTION    = 14.16127927
ECCENTRICITY   = .00155753
INCLINATION    = 70.9994
RA_OF_ASC_NODE = 71.0424
ARG_OF_PERICENTER = 220.0740
MEAN_ANOMALY   = 139.9236

EPHEMERIS_TYPE = 0
CLASSIFICATION_TYPE = U
NORAD_CAT_ID   = 19650
ELEMENT_SET_NO = 999
REV_AT_EPOCH   = 90808
BSTAR          = .1930522E-3
MEAN_MOTION_DOT = .334E-5
MEAN_MOTION_DDOT = 0

CCSDS_OMM_VERS = 2.0
CREATION_DATE  = 
ORIGINATOR     = 

OBJECT_NAME    = INTERCOSMOS 24
OBJECT_ID      = 1989-080A
CENTER_NAME    = EARTH
REF_FRAME      = TEME
TIME_SYSTEM    = UTC
MEAN_ELEMENT_THEORY = SGP/SGP4

EPOCH          = 2025-10-27T15:52:32.338560
MEAN_MOTION    = 12.59343441
ECCENTRICITY   = .11875455
INCLINATION    = 82.6103
RA_OF_ASC_NODE = 190.9142
ARG_OF_PERICENTER = 241.4468
MEAN_ANOMALY   = 106.2140

EPHEMERIS_TYPE = 0
CLASSIFICATION_TYPE = U
NORAD_CAT_ID   = 20261
ELEMENT_SET_NO = 999
REV_AT_EPOCH   = 65005
BSTAR          = .21704278E-3
MEAN_MOTION_DOT = .731E-5
MEAN_MOTION_DDOT = 0

CCSDS_OMM_VERS = 2.0
CREATION_DATE  = 
ORIGINATOR     = 

OBJECT_NAME    = SL-14 R/B
OBJECT_ID      = 1989-080C
CENTER_NAME    = EARTH
REF_FRAME      = TEME
TIME_SYSTEM    = UTC
MEAN_ELEMENT_THEORY = SGP/SGP4

EPOCH          = 2025-10-27T21:31:18.882048
MEAN_MOTION    = 12.50368139
ECCENTRICITY   = .12314743
INCLINATION    = 82.5904
RA_OF_ASC_NODE = 258.4416
ARG_OF_PERICENTER = 128.2908
MEAN_ANOMALY   = 243.5576

EPHEMERIS_TYPE = 0
CLASSIFICATION_TYPE = U
NORAD_CAT_ID   = 20262
ELEMENT_SET_NO = 999
REV_AT_EPOCH   = 64355
BSTAR          = .79633942E-4
MEAN_MOTION_DOT = .295E-5
MEAN_MOTION_DDOT = 0

